start=new Date('2023-01-15T00:00:00.000Z').valueOf();
sats=[{"SEMIMAJOR_AXIS":"6917.838","RCS_SIZE":"LARGE","INCLINATION":"53.2140","SITE":"AFETR","CLASSIFICATION_TYPE":"U","TLE_LINE1":"1 53254U 22086N   23014.24838339  .00010156  00000-0  65501-3 0  9990","TIME_SYSTEM":"UTC","EPHEMERIS_TYPE":"0","MEAN_MOTION_DDOT":"0.0000000000000","ECCENTRICITY":"0.00017950","PERIOD":"95.437","MEAN_ANOMALY":"261.4924","TLE_LINE2":"2 53254  53.2140 318.6600 0001795  98.6272 261.4924 15.08853728 27202","DECAY_DATE":null,"MEAN_MOTION":"15.08853728","PERIAPSIS":"538.462","REV_AT_EPOCH":"2720","LAUNCH_DATE":"2022-07-24","NORAD_CAT_ID":"53254","MEAN_ELEMENT_THEORY":"SGP4","ELEMENT_SET_NO":"999","EPOCH":"2023-01-14T05:57:40.324896","OBJECT_ID":"2022-086N","FILE":"3744239","REF_FRAME":"TEME","ARG_OF_PERICENTER":"98.6272","APOAPSIS":"540.945","BSTAR":"0.00065501000000","RA_OF_ASC_NODE":"318.6600","OBJECT_NAME":"STARLINK-4134","MEAN_MOTION_DOT":"0.00010156","OBJECT_TYPE":"PAYLOAD","COUNTRY_CODE":"US","GP_ID":"222988366","CENTER_NAME":"EARTH"},{"TLE_LINE1":"1 53255U 22086P   23014.89606125  .00001465  00000-0  11010-3 0  9997","CLASSIFICATION_TYPE":"U","MEAN_MOTION_DDOT":"0.0000000000000","ECCENTRICITY":"0.00012340","EPHEMERIS_TYPE":"0","TIME_SYSTEM":"UTC","RCS_SIZE":"LARGE","SEMIMAJOR_AXIS":"6917.881","SITE":"AFETR","INCLINATION":"53.2163","NORAD_CAT_ID":"53255","LAUNCH_DATE":"2022-07-24","MEAN_ELEMENT_THEORY":"SGP4","PERIAPSIS":"538.892","REV_AT_EPOCH":"2730","DECAY_DATE":null,"MEAN_MOTION":"15.08839883","PERIOD":"95.438","TLE_LINE2":"2 53255  53.2163 315.7512 0001234  74.4273 285.6856 15.08839883 27308","MEAN_ANOMALY":"285.6856","APOAPSIS":"540.599","ARG_OF_PERICENTER":"74.4273","REF_FRAME":"TEME","RA_OF_ASC_NODE":"315.7512","BSTAR":"0.00011010000000","EPOCH":"2023-01-14T21:30:19.692000","ELEMENT_SET_NO":"999","FILE":"3745158","OBJECT_ID":"2022-086P","GP_ID":"223026059","COUNTRY_CODE":"US","OBJECT_TYPE":"PAYLOAD","CENTER_NAME":"EARTH","MEAN_MOTION_DOT":"0.00001465","OBJECT_NAME":"STARLINK-4142"},{"MEAN_MOTION_DOT":"0.00002056","OBJECT_NAME":"STARLINK-4147","CENTER_NAME":"EARTH","GP_ID":"222998875","COUNTRY_CODE":"US","OBJECT_TYPE":"PAYLOAD","FILE":"3744748","OBJECT_ID":"2022-086Q","ELEMENT_SET_NO":"999","EPOCH":"2023-01-14T13:38:41.871552","RA_OF_ASC_NODE":"317.2322","BSTAR":"0.00014721000000","APOAPSIS":"541.355","ARG_OF_PERICENTER":"39.7790","REF_FRAME":"TEME","MEAN_ANOMALY":"320.3374","TLE_LINE2":"2 53256  53.2135 317.2322 0002349  39.7790 320.3374 15.08845003 27257","PERIOD":"95.437","LAUNCH_DATE":"2022-07-24","NORAD_CAT_ID":"53256","MEAN_ELEMENT_THEORY":"SGP4","REV_AT_EPOCH":"2725","PERIAPSIS":"538.105","MEAN_MOTION":"15.08845003","DECAY_DATE":null,"SITE":"AFETR","INCLINATION":"53.2135","RCS_SIZE":"LARGE","SEMIMAJOR_AXIS":"6917.865","ECCENTRICITY":"0.00023490","MEAN_MOTION_DDOT":"0.0000000000000","EPHEMERIS_TYPE":"0","TIME_SYSTEM":"UTC","TLE_LINE1":"1 53256U 22086Q   23014.56854018  .00002056  00000-0  14721-3 0  9997","CLASSIFICATION_TYPE":"U"},{"OBJECT_TYPE":"PAYLOAD","COUNTRY_CODE":"US","GP_ID":"222999104","CENTER_NAME":"EARTH","OBJECT_NAME":"STARLINK-4144","MEAN_MOTION_DOT":"0.00024904","ARG_OF_PERICENTER":"73.0320","REF_FRAME":"TEME","APOAPSIS":"541.219","RA_OF_ASC_NODE":"317.2720","BSTAR":"0.00157690000000","EPOCH":"2023-01-14T13:17:30.758208","ELEMENT_SET_NO":"999","FILE":"3744748","OBJECT_ID":"2022-086R","DECAY_DATE":null,"MEAN_MOTION":"15.08849205","LAUNCH_DATE":"2022-07-24","NORAD_CAT_ID":"53257","MEAN_ELEMENT_THEORY":"SGP4","PERIAPSIS":"538.215","REV_AT_EPOCH":"2725","PERIOD":"95.437","MEAN_ANOMALY":"287.0910","TLE_LINE2":"2 53257  53.2175 317.2720 0002171  73.0320 287.0910 15.08849205 27250","CLASSIFICATION_TYPE":"U","TLE_LINE1":"1 53257U 22086R   23014.55382822  .00024904  00000-0  15769-2 0  9994","EPHEMERIS_TYPE":"0","TIME_SYSTEM":"UTC","MEAN_MOTION_DDOT":"0.0000000000000","ECCENTRICITY":"0.00021710","SEMIMAJOR_AXIS":"6917.852","RCS_SIZE":"LARGE","INCLINATION":"53.2175","SITE":"AFETR"},{"ECCENTRICITY":"0.00018620","MEAN_MOTION_DDOT":"0.0000000000000","TIME_SYSTEM":"UTC","EPHEMERIS_TYPE":"0","CLASSIFICATION_TYPE":"U","TLE_LINE1":"1 53258U 22086S   23014.82614240  .00003972  00000-0  26772-3 0  9996","SITE":"AFETR","INCLINATION":"53.2187","RCS_SIZE":"LARGE","SEMIMAJOR_AXIS":"6917.960","PERIAPSIS":"538.537","REV_AT_EPOCH":"2729","NORAD_CAT_ID":"53258","LAUNCH_DATE":"2022-07-24","MEAN_ELEMENT_THEORY":"SGP4","DECAY_DATE":null,"MEAN_MOTION":"15.08814065","MEAN_ANOMALY":"323.1062","TLE_LINE2":"2 53258  53.2187 316.0653 0001862  37.0058 323.1062 15.08814065 27290","PERIOD":"95.439","BSTAR":"0.00026772000000","RA_OF_ASC_NODE":"316.0653","APOAPSIS":"541.113","REF_FRAME":"TEME","ARG_OF_PERICENTER":"37.0058","OBJECT_ID":"2022-086S","FILE":"3745158","ELEMENT_SET_NO":"999","EPOCH":"2023-01-14T19:49:38.703360","CENTER_NAME":"EARTH","GP_ID":"223026067","COUNTRY_CODE":"US","OBJECT_TYPE":"PAYLOAD","MEAN_MOTION_DOT":"0.00003972","OBJECT_NAME":"STARLINK-4127"},{"ELEMENT_SET_NO":"999","EPOCH":"2023-01-13T13:22:47.881632","FILE":"3743580","OBJECT_ID":"2022-086T","ARG_OF_PERICENTER":"47.7529","REF_FRAME":"TEME","APOAPSIS":"541.013","RA_OF_ASC_NODE":"321.7445","BSTAR":"0.00054220000000","OBJECT_NAME":"STARLINK-4140","MEAN_MOTION_DOT":"0.00008352","OBJECT_TYPE":"PAYLOAD","COUNTRY_CODE":"US","GP_ID":"222948178","CENTER_NAME":"EARTH","SEMIMAJOR_AXIS":"6917.877","RCS_SIZE":"LARGE","INCLINATION":"53.2174","SITE":"AFETR","TLE_LINE1":"1 53259U 22086T   23013.55749863  .00008352  00000-0  54220-3 0  9992","CLASSIFICATION_TYPE":"U","EPHEMERIS_TYPE":"0","TIME_SYSTEM":"UTC","MEAN_MOTION_DDOT":"0.0000000000000","ECCENTRICITY":"0.00018380","PERIOD":"95.437","TLE_LINE2":"2 53259  53.2174 321.7445 0001838  47.7529 312.3619 15.08841188 27107","MEAN_ANOMALY":"312.3619","MEAN_MOTION":"15.08841188","DECAY_DATE":null,"LAUNCH_DATE":"2022-07-24","NORAD_CAT_ID":"53259","MEAN_ELEMENT_THEORY":"SGP4","REV_AT_EPOCH":"2710","PERIAPSIS":"538.470"},{"DECAY_DATE":null,"MEAN_MOTION":"15.08848360","REV_AT_EPOCH":"2725","PERIAPSIS":"538.703","LAUNCH_DATE":"2022-07-24","NORAD_CAT_ID":"53260","MEAN_ELEMENT_THEORY":"SGP4","TLE_LINE2":"2 53260  53.2144 317.2584 0001470  91.0773 269.0388 15.08848360 27251","MEAN_ANOMALY":"269.0388","PERIOD":"95.437","TIME_SYSTEM":"UTC","EPHEMERIS_TYPE":"0","MEAN_MOTION_DDOT":"0.0000000000000","ECCENTRICITY":"0.00014700","TLE_LINE1":"1 53260U 22086U   23014.55750042  .00006904  00000-0  45132-3 0  9999","CLASSIFICATION_TYPE":"U","INCLINATION":"53.2144","SITE":"AFETR","SEMIMAJOR_AXIS":"6917.855","RCS_SIZE":"LARGE","CENTER_NAME":"EARTH","COUNTRY_CODE":"US","OBJECT_TYPE":"PAYLOAD","GP_ID":"222999106","OBJECT_NAME":"STARLINK-4136","MEAN_MOTION_DOT":"0.00006904","BSTAR":"0.00045132000000","RA_OF_ASC_NODE":"317.2584","REF_FRAME":"TEME","ARG_OF_PERICENTER":"91.0773","APOAPSIS":"540.737","OBJECT_ID":"2022-086U","FILE":"3744748","ELEMENT_SET_NO":"999","EPOCH":"2023-01-14T13:22:48.036288"},{"OBJECT_NAME":"STARLINK-4062","MEAN_MOTION_DOT":"0.00003683","CENTER_NAME":"EARTH","OBJECT_TYPE":"PAYLOAD","COUNTRY_CODE":"US","GP_ID":"223026071","FILE":"3745162","OBJECT_ID":"2022-086V","EPOCH":"2023-01-14T20:58:31.741536","ELEMENT_SET_NO":"999","RA_OF_ASC_NODE":"315.8399","BSTAR":"0.00024942000000","ARG_OF_PERICENTER":"47.7312","REF_FRAME":"TEME","APOAPSIS":"541.142","TLE_LINE2":"2 53261  53.2194 315.8399 0001975  47.7312 312.3847 15.08829918 27308","MEAN_ANOMALY":"312.3847","PERIOD":"95.438","DECAY_DATE":null,"MEAN_MOTION":"15.08829918","MEAN_ELEMENT_THEORY":"SGP4","LAUNCH_DATE":"2022-07-24","NORAD_CAT_ID":"53261","REV_AT_EPOCH":"2730","PERIAPSIS":"538.410","INCLINATION":"53.2194","SITE":"AFETR","SEMIMAJOR_AXIS":"6917.911","RCS_SIZE":"LARGE","EPHEMERIS_TYPE":"0","TIME_SYSTEM":"UTC","MEAN_MOTION_DDOT":"0.0000000000000","ECCENTRICITY":"0.00019750","CLASSIFICATION_TYPE":"U","TLE_LINE1":"1 53261U 22086V   23014.87397849  .00003683  00000-0  24942-3 0  9994"},{"TLE_LINE1":"1 53262U 22086W   23014.21893871  .00007871  00000-0  51192-3 0  9999","CLASSIFICATION_TYPE":"U","EPHEMERIS_TYPE":"0","TIME_SYSTEM":"UTC","MEAN_MOTION_DDOT":"0.0000000000000","ECCENTRICITY":"0.00013120","SEMIMAJOR_AXIS":"6917.844","RCS_SIZE":"LARGE","INCLINATION":"53.2194","SITE":"AFETR","MEAN_MOTION":"15.08851869","DECAY_DATE":null,"NORAD_CAT_ID":"53262","LAUNCH_DATE":"2022-07-24","MEAN_ELEMENT_THEORY":"SGP4","REV_AT_EPOCH":"2720","PERIAPSIS":"538.801","PERIOD":"95.437","TLE_LINE2":"2 53262  53.2194 318.7814 0001312  87.7800 272.3343 15.08851869 27209","MEAN_ANOMALY":"272.3343","ARG_OF_PERICENTER":"87.7800","REF_FRAME":"TEME","APOAPSIS":"540.617","RA_OF_ASC_NODE":"318.7814","BSTAR":"0.00051192000000","EPOCH":"2023-01-14T05:15:16.304544","ELEMENT_SET_NO":"999","FILE":"3744248","OBJECT_ID":"2022-086W","COUNTRY_CODE":"US","OBJECT_TYPE":"PAYLOAD","GP_ID":"222988994","CENTER_NAME":"EARTH","OBJECT_NAME":"STARLINK-4085","MEAN_MOTION_DOT":"0.00007871"},{"PERIAPSIS":"538.252","REV_AT_EPOCH":"2725","LAUNCH_DATE":"2022-07-24","MEAN_ELEMENT_THEORY":"SGP4","NORAD_CAT_ID":"53263","DECAY_DATE":null,"MEAN_MOTION":"15.08842733","PERIOD":"95.437","MEAN_ANOMALY":"298.6110","TLE_LINE2":"2 53263  53.2175 317.3420 0002147  61.5098 298.6110 15.08842733 27251","TLE_LINE1":"1 53263U 22086X   23014.53910038  .00017959  00000-0  11435-2 0  9993","CLASSIFICATION_TYPE":"U","MEAN_MOTION_DDOT":"0.0000000000000","ECCENTRICITY":"0.00021470","TIME_SYSTEM":"UTC","EPHEMERIS_TYPE":"0","RCS_SIZE":"LARGE","SEMIMAJOR_AXIS":"6917.872","SITE":"AFETR","INCLINATION":"53.2175","GP_ID":"222999105","OBJECT_TYPE":"PAYLOAD","COUNTRY_CODE":"US","CENTER_NAME":"EARTH","MEAN_MOTION_DOT":"0.00017959","OBJECT_NAME":"STARLINK-4130","APOAPSIS":"541.222","REF_FRAME":"TEME","ARG_OF_PERICENTER":"61.5098","BSTAR":"0.00114350000000","RA_OF_ASC_NODE":"317.3420","EPOCH":"2023-01-14T12:56:18.272832","ELEMENT_SET_NO":"999","OBJECT_ID":"2022-086X","FILE":"3744748"}];
